$$SOE
2459580.500000000, A.D. 2022-Jan-01 00:00:00.0000, 2.142185274722101E+08, 3.148200316876364E+08, -1.052171095951807E+07,
2459587.500000000, A.D. 2022-Jan-08 00:00:00.0000, 2.050576593345574E+08, 3.201657825075445E+08, -1.148018966585854E+07,
2459594.500000000, A.D. 2022-Jan-15 00:00:00.0000, 1.957159071713164E+08, 3.252290897488969E+08, -1.242854081998646E+07,
2459601.500000000, A.D. 2022-Jan-22 00:00:00.0000, 1.862007006419709E+08, 3.300041341440852E+08, -1.336587648116851E+07,
2459608.500000000, A.D. 2022-Jan-29 00:00:00.0000, 1.765196482428780E+08, 3.344852177852119E+08, -1.429130665081672E+07,
2459615.500000000, A.D. 2022-Feb-05 00:00:00.0000, 1.666805383721763E+08, 3.386667673132212E+08, -1.520393921309009E+07,
2459622.500000000, A.D. 2022-Feb-12 00:00:00.0000, 1.566913426434229E+08, 3.425433364547866E+08, -1.610288018702726E+07,
2459629.500000000, A.D. 2022-Feb-19 00:00:00.0000, 1.465602201077118E+08, 3.461096102923356E+08, -1.698723397815941E+07,
2459636.500000000, A.D. 2022-Feb-26 00:00:00.0000, 1.362955210518425E+08, 3.493604105603549E+08, -1.785610357091182E+07,
2459643.500000000, A.D. 2022-Mar-05 00:00:00.0000, 1.259057905097052E+08, 3.522907013701800E+08, -1.870859072955699E+07,
2459650.500000000, A.D. 2022-Mar-12 00:00:00.0000, 1.153997716857797E+08, 3.548955953175674E+08, -1.954379623649324E+07,
2459657.500000000, A.D. 2022-Mar-19 00:00:00.0000, 1.047864093372016E+08, 3.571703600212712E+08, -2.036082017532463E+07,
2459664.500000000, A.D. 2022-Mar-26 00:00:00.0000, 9.407485311004896E+07, 3.591104251068894E+08, -2.115876226465589E+07,
2459671.500000000, A.D. 2022-Apr-02 00:00:00.0000, 8.327446086843124E+07, 3.607113896003359E+08, -2.193672225684929E+07,
2459678.500000000, A.D. 2022-Apr-09 00:00:00.0000, 7.239480225638835E+07, 3.619690297562364E+08, -2.269380042987019E+07,
2459685.500000000, A.D. 2022-Apr-16 00:00:00.0000, 6.144566281521271E+07, 3.628793079971529E+08, -2.342909815547007E+07,
2459692.500000000, A.D. 2022-Apr-23 00:00:00.0000, 5.043704735255633E+07, 3.634383840691835E+08, -2.414171834322928E+07,
2459699.500000000, A.D. 2022-Apr-30 00:00:00.0000, 3.937918065439234E+07, 3.636426261814938E+08, -2.483076577580462E+07,
2459706.500000000, A.D. 2022-May-07 00:00:00.0000, 2.828250855321097E+07, 3.634886201714084E+08, -2.549534778034459E+07,
2459713.500000000, A.D. 2022-May-14 00:00:00.0000, 1.715770069425604E+07, 3.629731797574236E+08, -2.613457512039267E+07,
2459720.500000000, A.D. 2022-May-21 00:00:00.0000, 6.015652921371841E+06, 3.620933586545777E+08, -2.674756286486194E+07,
2459727.500000000, A.D. 2022-May-28 00:00:00.0000, -5.132511251160899E+06, 3.608464636039882E+08, -2.733343127244999E+07,
2459734.500000000, A.D. 2022-Jun-04 00:00:00.0000, -1.627543986342614E+07, 3.592300680140452E+08, -2.789130674662469E+07,
2459741.500000000, A.D. 2022-Jun-11 00:00:00.0000, -2.740155235013032E+07, 3.572420262238966E+08, -2.842032287864555E+07,
2459748.500000000, A.D. 2022-Jun-18 00:00:00.0000, -3.849904002524819E+07, 3.548804884077889E+08, -2.891962158549519E+07,
2459755.500000000, A.D. 2022-Jun-25 00:00:00.0000, -4.955586725367861E+07, 3.521439160884687E+08, -2.938835435248239E+07,
2459762.500000000, A.D. 2022-Jul-02 00:00:00.0000, -6.055977325260915E+07, 3.490310981907238E+08, -2.982568360239971E+07,
2459769.500000000, A.D. 2022-Jul-09 00:00:00.0000, -7.149827421424499E+07, 3.455411678039061E+08, -3.023078421665315E+07,
2459776.500000000, A.D. 2022-Jul-16 00:00:00.0000, -8.235866589261943E+07, 3.416736207244118E+08, -3.060284511919573E+07,
2459783.500000000, A.D. 2022-Jul-23 00:00:00.0000, -9.312802894248787E+07, 3.374283358401293E+08, -3.094107072029564E+07,
2459790.500000000, A.D. 2022-Jul-30 00:00:00.0000, -1.037932370161087E+08, 3.328055939721304E+08, -3.124468250490257E+07,
2459797.500000000, A.D. 2022-Aug-06 00:00:00.0000, -1.143409641214497E+08, 3.278060957807876E+08, -3.151292104443473E+07,
2459804.500000000, A.D. 2022-Aug-13 00:00:00.0000, -1.247576921711351E+08, 3.224309814546311E+08, -3.174504813621671E+07,
2459811.500000000, A.D. 2022-Aug-20 00:00:00.0000, -1.350297203908724E+08, 3.166818516292365E+08, -3.194034897145176E+07,
2459818.500000000, A.D. 2022-Aug-27 00:00:00.0000, -1.451431766193168E+08, 3.105607887408521E+08, -3.209813439796489E+07,
2459825.500000000, A.D. 2022-Sep-03 00:00:00.0000, -1.550840303545927E+08, 3.040703786192884E+08, -3.221774330789381E+07,
2459832.500000000, A.D. 2022-Sep-10 00:00:00.0000, -1.648381075654482E+08, 2.972137322438902E+08, -3.229854515346180E+07,
2459839.500000000, A.D. 2022-Sep-17 00:00:00.0000, -1.743911073515584E+08, 2.899945075499236E+08, -3.233994259059307E+07,
2459846.500000000, A.D. 2022-Sep-24 00:00:00.0000, -1.837286205075480E+08, 2.824169311163747E+08, -3.234137425829929E+07,
2459853.500000000, A.D. 2022-Oct-01 00:00:00.0000, -1.928361498593569E+08, 2.744858195846250E+08, -3.230231771623938E+07,
2459860.500000000, A.D. 2022-Oct-08 00:00:00.0000, -2.016991320644114E+08, 2.662066011849315E+08, -3.222229253197359E+07,
2459867.500000000, A.D. 2022-Oct-15 00:00:00.0000, -2.103029618984415E+08, 2.575853384051389E+08, -3.210086332893919E+07,
2459874.500000000, A.D. 2022-Oct-22 00:00:00.0000, -2.186330212922154E+08, 2.486287499366744E+08, -3.193764272548608E+07,
2459881.500000000, A.D. 2022-Oct-29 00:00:00.0000, -2.266747106824495E+08, 2.393442290996976E+08, -3.173229459412234E+07,
2459888.500000000, A.D. 2022-Nov-05 00:00:00.0000, -2.344134806299658E+08, 2.297398612555705E+08, -3.148453759322356E+07,
2459895.500000000, A.D. 2022-Nov-12 00:00:00.0000, -2.418348657169722E+08, 2.198244412335471E+08, -3.119414867298815E+07,
2459902.500000000, A.D. 2022-Nov-19 00:00:00.0000, -2.489245214642646E+08, 2.096074895665514E+08, -3.086096655130494E+07,
2459909.500000000, A.D. 2022-Nov-26 00:00:00.0000, -2.556682640005961E+08, 1.990992668671787E+08, -3.048489519525860E+07,
2459916.500000000, A.D. 2022-Dec-03 00:00:00.0000, -2.620521122879390E+08, 1.883107860452187E+08, -3.006590730082805E+07,
2459923.500000000, A.D. 2022-Dec-10 00:00:00.0000, -2.680623327984616E+08, 1.772538220868983E+08, -2.960404774741623E+07,
2459930.500000000, A.D. 2022-Dec-17 00:00:00.0000, -2.736854865274546E+08, 1.659409190634580E+08, -2.909943700292841E+07,
2459937.500000000, A.D. 2022-Dec-24 00:00:00.0000, -2.789084781060286E+08, 1.543853939897457E+08, -2.855227446354782E+07,
2459944.500000000, A.D. 2022-Dec-31 00:00:00.0000, -2.837186064903852E+08, 1.426013373241700E+08, -2.796284171829822E+07,
2459951.500000000, A.D. 2023-Jan-07 00:00:00.0000, -2.881036168982941E+08, 1.306036107572491E+08, -2.733150563458795E+07,
2459958.500000000, A.D. 2023-Jan-14 00:00:00.0000, -2.920517557131683E+08, 1.184078424766063E+08, -2.665872100583783E+07,
2459965.500000000, A.D. 2023-Jan-21 00:00:00.0000, -2.955518287144675E+08, 1.060304164433813E+08, -2.594503292322436E+07,
2459972.500000000, A.D. 2023-Jan-28 00:00:00.0000, -2.985932586277066E+08, 9.348845521443689E+07, -2.519107918279044E+07,
2459979.500000000, A.D. 2023-Feb-04 00:00:00.0000, -3.011661418104351E+08, 8.079979908349641E+07, -2.439759241633286E+07,
2459986.500000000, A.D. 2023-Feb-11 00:00:00.0000, -3.032613054459711E+08, 6.798298112130427E+07, -2.356540175500821E+07,
2459993.500000000, A.D. 2023-Feb-18 00:00:00.0000, -3.048703648493597E+08, 5.505719711347485E+07, -2.269543404752778E+07,
2460000.500000000, A.D. 2023-Feb-25 00:00:00.0000, -3.059857801198006E+08, 4.204227010483375E+07, -2.178871463011482E+07,
2460007.500000000, A.D. 2023-Mar-04 00:00:00.0000, -3.066009114976909E+08, 2.895860949108250E+07, -2.084636761676391E+07,
2460014.500000000, A.D. 2023-Mar-11 00:00:00.0000, -3.067100728292365E+08, 1.582716464034222E+07, -1.986961567556154E+07,
2460021.500000000, A.D. 2023-Mar-18 00:00:00.0000, -3.063085824997849E+08, 2.669373043924703E+06, -1.885977926569844E+07,
2460028.500000000, A.D. 2023-Mar-25 00:00:00.0000, -3.053928110240257E+08, -1.049289693158020E+07, -1.781827532772544E+07,
2460035.500000000, A.D. 2023-Apr-01 00:00:00.0000, -3.039602242526739E+08, -2.363740810617018E+07, -1.674661540888669E+07,
2460042.500000000, A.D. 2023-Apr-08 00:00:00.0000, -3.020094222008526E+08, -3.674161987341744E+07, -1.564640304881503E+07,
2460049.500000000, A.D. 2023-Apr-15 00:00:00.0000, -2.995401752487669E+08, -4.978275768184245E+07, -1.451933029252135E+07,
2460056.500000000, A.D. 2023-Apr-22 00:00:00.0000, -2.965534553616755E+08, -6.273788924788143E+07, -1.336717374712831E+07,
2460063.500000000, A.D. 2023-Apr-29 00:00:00.0000, -2.930514590956290E+08, -7.558400474814919E+07, -1.219179025805971E+07,
2460070.500000000, A.D. 2023-May-06 00:00:00.0000, -2.890376236931826E+08, -8.829809863272750E+07, -1.099511191280815E+07,
2460077.500000000, A.D. 2023-May-13 00:00:00.0000, -2.845166368495740E+08, -1.008572533153796E+08, -9.779140379696757E+06,
2460084.500000000, A.D. 2023-May-20 00:00:00.0000, -2.794944396009672E+08, -1.132387245397079E+08, -8.545940677323669E+06,
2460091.500000000, A.D. 2023-May-27 00:00:00.0000, -2.739782219131728E+08, -1.254200277048137E+08, -7.297634436304726E+06,
2460098.500000000, A.D. 2023-Jun-03 00:00:00.0000, -2.679764107679101E+08, -1.373790243355564E+08, -6.036392703601092E+06,
2460105.500000000, A.D. 2023-Jun-10 00:00:00.0000, -2.614986506616187E+08, -1.490940078974863E+08, -4.764428346077397E+06,
2460112.500000000, A.D. 2023-Jun-17 00:00:00.0000, -2.545557764572509E+08, -1.605437882009706E+08, -3.483988127454475E+06,
2460119.500000000, A.D. 2023-Jun-24 00:00:00.0000, -2.471597784032094E+08, -1.717077735434746E+08, -2.197344553531013E+06,
2460126.500000000, A.D. 2023-Jul-01 00:00:00.0000, -2.393237593174649E+08, -1.825660489965163E+08, -9.067875186925530E+05,
2460133.500000000, A.D. 2023-Jul-08 00:00:00.0000, -2.310618859735791E+08, -1.930994492808031E+08, 3.853843863150775E+05,
2460140.500000000, A.D. 2023-Jul-15 00:00:00.0000, -2.223893364220026E+08, -2.032896283654208E+08, 1.676872710478365E+06,
$$EOE